start=new Date('2022-04-07T00:00:00.000Z').valueOf();
sats=[{"ARG_OF_PERICENTER":"62.9684","MEAN_MOTION_DDOT":"0.0000000000000","OBJECT_TYPE":"PAYLOAD","EPOCH":"2022-04-06T22:46:34.804416","MEAN_ANOMALY":"297.1461","PERIAPSIS":"546.138","RA_OF_ASC_NODE":"78.4294","INCLINATION":"53.0536","OBJECT_ID":"2020-055B","CLASSIFICATION_TYPE":"U","FILE":"3391320","PERIOD":"95.592","APOAPSIS":"548.260","TIME_SYSTEM":"UTC","TLE_LINE1":"1 46028U 20055B   22096.94901394  .00001269  00000-0  10408-3 0  9994","OBJECT_NAME":"STARLINK-1523","ECCENTRICITY":"0.00015320","SITE":"AFETR","EPHEMERIS_TYPE":"0","MEAN_ELEMENT_THEORY":"SGP4","RCS_SIZE":"LARGE","MEAN_MOTION_DOT":"0.00001269","NORAD_CAT_ID":"46028","REF_FRAME":"TEME","BSTAR":"0.00010408000000","ELEMENT_SET_NO":"999","TLE_LINE2":"2 46028  53.0536  78.4294 0001532  62.9684 297.1461 15.06404856 92958","CENTER_NAME":"EARTH","LAUNCH_DATE":"2020-08-07","MEAN_MOTION":"15.06404856","GP_ID":"200622573","REV_AT_EPOCH":"9295","SEMIMAJOR_AXIS":"6925.334","COUNTRY_CODE":"US","DECAY_DATE":null},{"BSTAR":"0.00015252000000","REF_FRAME":"TEME","NORAD_CAT_ID":"46029","CENTER_NAME":"EARTH","LAUNCH_DATE":"2020-08-07","ELEMENT_SET_NO":"999","TLE_LINE2":"2 46029  53.0531  80.5622 0001605  63.9372 296.1782 15.06403733 92878","RCS_SIZE":"LARGE","SITE":"AFETR","EPHEMERIS_TYPE":"0","MEAN_ELEMENT_THEORY":"SGP4","MEAN_MOTION_DOT":"0.00001991","SEMIMAJOR_AXIS":"6925.337","DECAY_DATE":null,"COUNTRY_CODE":"US","MEAN_MOTION":"15.06403733","REV_AT_EPOCH":"9287","GP_ID":"200589080","INCLINATION":"53.0531","MEAN_ANOMALY":"296.1782","PERIAPSIS":"546.091","RA_OF_ASC_NODE":"80.5622","CLASSIFICATION_TYPE":"U","FILE":"3390907","OBJECT_ID":"2020-055C","ARG_OF_PERICENTER":"63.9372","MEAN_MOTION_DDOT":"0.0000000000000","OBJECT_TYPE":"PAYLOAD","EPOCH":"2022-04-06T11:27:11.102112","ECCENTRICITY":"0.00016050","OBJECT_NAME":"STARLINK-1526","TIME_SYSTEM":"UTC","PERIOD":"95.592","APOAPSIS":"548.314","TLE_LINE1":"1 46029U 20055C   22096.47721183  .00001991  00000-0  15252-3 0  9993"},{"TLE_LINE1":"1 46030U 20055D   22096.89372761  .00000384  00000-0  44673-4 0  9990","TIME_SYSTEM":"UTC","APOAPSIS":"548.256","PERIOD":"95.593","ECCENTRICITY":"0.00014790","OBJECT_NAME":"STARLINK-1534","EPOCH":"2022-04-06T21:26:58.065504","OBJECT_TYPE":"PAYLOAD","ARG_OF_PERICENTER":"64.5865","MEAN_MOTION_DDOT":"0.0000000000000","FILE":"3391320","CLASSIFICATION_TYPE":"U","OBJECT_ID":"2020-055D","INCLINATION":"53.0557","RA_OF_ASC_NODE":"78.6809","PERIAPSIS":"546.208","MEAN_ANOMALY":"295.5277","REV_AT_EPOCH":"9289","GP_ID":"200623575","MEAN_MOTION":"15.06393964","DECAY_DATE":null,"COUNTRY_CODE":"US","SEMIMAJOR_AXIS":"6925.367","MEAN_MOTION_DOT":"0.00000384","RCS_SIZE":"LARGE","MEAN_ELEMENT_THEORY":"SGP4","EPHEMERIS_TYPE":"0","SITE":"AFETR","LAUNCH_DATE":"2020-08-07","CENTER_NAME":"EARTH","TLE_LINE2":"2 46030  53.0557  78.6809 0001479  64.5865 295.5277 15.06393964 92894","ELEMENT_SET_NO":"999","BSTAR":"0.00004467300000","NORAD_CAT_ID":"46030","REF_FRAME":"TEME"},{"MEAN_MOTION":"15.06397798","REV_AT_EPOCH":"9284","GP_ID":"200588080","SEMIMAJOR_AXIS":"6925.355","DECAY_DATE":null,"COUNTRY_CODE":"US","RCS_SIZE":"LARGE","SITE":"AFETR","EPHEMERIS_TYPE":"0","MEAN_ELEMENT_THEORY":"SGP4","MEAN_MOTION_DOT":"0.00001918","BSTAR":"0.00014764000000","NORAD_CAT_ID":"46031","REF_FRAME":"TEME","CENTER_NAME":"EARTH","LAUNCH_DATE":"2020-08-07","ELEMENT_SET_NO":"999","TLE_LINE2":"2 46031  53.0559  81.0506 0001483  71.5624 288.5526 15.06397798 92848","TIME_SYSTEM":"UTC","PERIOD":"95.592","APOAPSIS":"548.247","TLE_LINE1":"1 46031U 20055E   22096.36663668  .00001918  00000-0  14764-3 0  9993","ECCENTRICITY":"0.00014830","OBJECT_NAME":"STARLINK-1544","MEAN_MOTION_DDOT":"0.0000000000000","ARG_OF_PERICENTER":"71.5624","OBJECT_TYPE":"PAYLOAD","EPOCH":"2022-04-06T08:47:57.409152","INCLINATION":"53.0559","MEAN_ANOMALY":"288.5526","PERIAPSIS":"546.193","RA_OF_ASC_NODE":"81.0506","FILE":"3390907","CLASSIFICATION_TYPE":"U","OBJECT_ID":"2020-055E"},{"RCS_SIZE":"LARGE","MEAN_ELEMENT_THEORY":"SGP4","SITE":"AFETR","EPHEMERIS_TYPE":"0","MEAN_MOTION_DOT":"0.00001092","BSTAR":"0.00009221000000","NORAD_CAT_ID":"46032","REF_FRAME":"TEME","LAUNCH_DATE":"2020-08-07","CENTER_NAME":"EARTH","TLE_LINE2":"2 46032  53.0556  80.6163 0001959  51.0809 309.0354 15.06397369 92871","ELEMENT_SET_NO":"999","MEAN_MOTION":"15.06397369","REV_AT_EPOCH":"9287","GP_ID":"200588831","SEMIMAJOR_AXIS":"6925.357","DECAY_DATE":null,"COUNTRY_CODE":"US","ARG_OF_PERICENTER":"51.0809","MEAN_MOTION_DDOT":"0.0000000000000","EPOCH":"2022-04-06T11:05:57.284448","OBJECT_TYPE":"PAYLOAD","INCLINATION":"53.0556","RA_OF_ASC_NODE":"80.6163","PERIAPSIS":"545.865","MEAN_ANOMALY":"309.0354","CLASSIFICATION_TYPE":"U","FILE":"3390907","OBJECT_ID":"2020-055F","TIME_SYSTEM":"UTC","APOAPSIS":"548.578","PERIOD":"95.592","TLE_LINE1":"1 46032U 20055F   22096.46246857  .00001092  00000-0  92210-4 0  9998","ECCENTRICITY":"0.00019590","OBJECT_NAME":"STARLINK-1555"},{"COUNTRY_CODE":"US","DECAY_DATE":null,"SEMIMAJOR_AXIS":"6925.348","GP_ID":"200589581","REV_AT_EPOCH":"9284","MEAN_MOTION":"15.06400246","ELEMENT_SET_NO":"999","TLE_LINE2":"2 46033  53.0547  80.7110 0001689  61.8248 298.2912 15.06400246 92846","CENTER_NAME":"EARTH","LAUNCH_DATE":"2020-08-07","NORAD_CAT_ID":"46033","REF_FRAME":"TEME","BSTAR":"0.00011463000000","MEAN_MOTION_DOT":"0.00001426","SITE":"AFETR","EPHEMERIS_TYPE":"0","MEAN_ELEMENT_THEORY":"SGP4","RCS_SIZE":"LARGE","OBJECT_NAME":"STARLINK-1556","ECCENTRICITY":"0.00016890","TLE_LINE1":"1 46033U 20055G   22096.44404276  .00001426  00000-0  11463-3 0  9999","PERIOD":"95.592","APOAPSIS":"548.382","TIME_SYSTEM":"UTC","OBJECT_ID":"2020-055G","CLASSIFICATION_TYPE":"U","FILE":"3390907","MEAN_ANOMALY":"298.2912","PERIAPSIS":"546.043","RA_OF_ASC_NODE":"80.7110","INCLINATION":"53.0547","OBJECT_TYPE":"PAYLOAD","EPOCH":"2022-04-06T10:39:25.294464","MEAN_MOTION_DDOT":"0.0000000000000","ARG_OF_PERICENTER":"61.8248"},{"MEAN_MOTION":"15.06395433","GP_ID":"200589833","REV_AT_EPOCH":"9284","SEMIMAJOR_AXIS":"6925.363","COUNTRY_CODE":"US","DECAY_DATE":null,"EPHEMERIS_TYPE":"0","SITE":"AFETR","MEAN_ELEMENT_THEORY":"SGP4","RCS_SIZE":"LARGE","MEAN_MOTION_DOT":"-0.00000874","REF_FRAME":"TEME","NORAD_CAT_ID":"46034","BSTAR":"-0.00003975000000","ELEMENT_SET_NO":"999","TLE_LINE2":"2 46034  53.0546  80.7037 0001699  55.2167 304.8982 15.06395433 92844","CENTER_NAME":"EARTH","LAUNCH_DATE":"2020-08-07","PERIOD":"95.592","APOAPSIS":"548.404","TIME_SYSTEM":"UTC","TLE_LINE1":"1 46034U 20055H   22096.44772642 -.00000874  00000-0 -39750-4 0  9993","OBJECT_NAME":"STARLINK-1557","ECCENTRICITY":"0.00016990","MEAN_MOTION_DDOT":"0.0000000000000","ARG_OF_PERICENTER":"55.2167","OBJECT_TYPE":"PAYLOAD","EPOCH":"2022-04-06T10:44:43.562688","PERIAPSIS":"546.051","MEAN_ANOMALY":"304.8982","RA_OF_ASC_NODE":"80.7037","INCLINATION":"53.0546","OBJECT_ID":"2020-055H","FILE":"3390907","CLASSIFICATION_TYPE":"U"},{"MEAN_MOTION_DOT":"-0.00000418","RCS_SIZE":"LARGE","EPHEMERIS_TYPE":"0","SITE":"AFETR","MEAN_ELEMENT_THEORY":"SGP4","CENTER_NAME":"EARTH","LAUNCH_DATE":"2020-08-07","ELEMENT_SET_NO":"999","TLE_LINE2":"2 46035  53.0537  80.6466 0001497  62.8282 297.2859 15.06397625 92874","BSTAR":"-0.00000915500000","REF_FRAME":"TEME","NORAD_CAT_ID":"46035","REV_AT_EPOCH":"9287","GP_ID":"200588581","MEAN_MOTION":"15.06397625","DECAY_DATE":null,"COUNTRY_CODE":"US","SEMIMAJOR_AXIS":"6925.356","OBJECT_TYPE":"PAYLOAD","EPOCH":"2022-04-06T10:55:20.863776","MEAN_MOTION_DDOT":"0.0000000000000","ARG_OF_PERICENTER":"62.8282","FILE":"3390907","CLASSIFICATION_TYPE":"U","OBJECT_ID":"2020-055J","INCLINATION":"53.0537","MEAN_ANOMALY":"297.2859","PERIAPSIS":"546.184","RA_OF_ASC_NODE":"80.6466","TLE_LINE1":"1 46035U 20055J   22096.45510259 -.00000418  00000-0 -91550-5 0  9990","TIME_SYSTEM":"UTC","PERIOD":"95.592","APOAPSIS":"548.258","ECCENTRICITY":"0.00014970","OBJECT_NAME":"STARLINK-1558"},{"MEAN_MOTION_DOT":"-0.00002265","RCS_SIZE":"LARGE","EPHEMERIS_TYPE":"0","SITE":"AFETR","MEAN_ELEMENT_THEORY":"SGP4","CENTER_NAME":"EARTH","LAUNCH_DATE":"2020-08-07","ELEMENT_SET_NO":"999","TLE_LINE2":"2 46036  53.0556  80.7145 0001494  66.5883 293.5263 15.06386266 92873","BSTAR":"-0.00013325000000","NORAD_CAT_ID":"46036","REF_FRAME":"TEME","REV_AT_EPOCH":"9287","GP_ID":"200588331","MEAN_MOTION":"15.06386266","DECAY_DATE":null,"COUNTRY_CODE":"US","SEMIMAJOR_AXIS":"6925.391","OBJECT_TYPE":"PAYLOAD","EPOCH":"2022-04-06T10:34:07.119552","MEAN_MOTION_DDOT":"0.0000000000000","ARG_OF_PERICENTER":"66.5883","CLASSIFICATION_TYPE":"U","FILE":"3390907","OBJECT_ID":"2020-055K","INCLINATION":"53.0556","PERIAPSIS":"546.221","MEAN_ANOMALY":"293.5263","RA_OF_ASC_NODE":"80.7145","TLE_LINE1":"1 46036U 20055K   22096.44036018 -.00002265  00000-0 -13325-3 0  9990","TIME_SYSTEM":"UTC","PERIOD":"95.593","APOAPSIS":"548.290","ECCENTRICITY":"0.00014940","OBJECT_NAME":"STARLINK-1560"},{"SITE":"AFETR","EPHEMERIS_TYPE":"0","MEAN_ELEMENT_THEORY":"SGP4","RCS_SIZE":"LARGE","MEAN_MOTION_DOT":"-0.00001011","NORAD_CAT_ID":"46037","REF_FRAME":"TEME","BSTAR":"-0.00004898200000","ELEMENT_SET_NO":"999","TLE_LINE2":"2 46037  53.0554  81.0534 0001523  62.4256 297.6887 15.06388538 92859","CENTER_NAME":"EARTH","LAUNCH_DATE":"2020-08-07","MEAN_MOTION":"15.06388538","GP_ID":"200589081","REV_AT_EPOCH":"9285","SEMIMAJOR_AXIS":"6925.384","COUNTRY_CODE":"US","DECAY_DATE":null,"ARG_OF_PERICENTER":"62.4256","MEAN_MOTION_DDOT":"0.0000000000000","OBJECT_TYPE":"PAYLOAD","EPOCH":"2022-04-06T08:53:16.742688","PERIAPSIS":"546.194","MEAN_ANOMALY":"297.6887","RA_OF_ASC_NODE":"81.0534","INCLINATION":"53.0554","OBJECT_ID":"2020-055L","CLASSIFICATION_TYPE":"U","FILE":"3390907","PERIOD":"95.593","APOAPSIS":"548.303","TIME_SYSTEM":"UTC","TLE_LINE1":"1 46037U 20055L   22096.37033267 -.00001011  00000-0 -48982-4 0  9992","OBJECT_NAME":"STARLINK-1565","ECCENTRICITY":"0.00015230"}];
